COMMENT,ORIGINATOR,NORAD_CAT_ID,OBJECT_NAME,OBJECT_TYPE,CLASSIFICATION_TYPE,INTLDES,EPOCH,EPOCH_MICROSECONDS,MEAN_MOTION,ECCENTRICITY,INCLINATION,RA_OF_ASC_NODE,ARG_OF_PERICENTER,MEAN_ANOMALY,EPHEMERIS_TYPE,ELEMENT_SET_NO,REV_AT_EPOCH,BSTAR,MEAN_MOTION_DOT,MEAN_MOTION_DDOT,FILE,TLE_LINE0,TLE_LINE1,TLE_LINE2,OBJECT_ID,OBJECT_NUMBER,SEMIMAJOR_AXIS,PERIOD,APOGEE,PERIGEE,DECAYED
"GENERATED VIA SPACETRACK.ORG API","18 SPCS","48883","SPACEBEE-100","PAYLOAD","U","21059E","2022-11-13 14:28:51","722688","15.19026518","0.0007473","97.5733","86.8577","309.2285","50.8285","0","999","7654","0.00067347","0.00014059","0","3653957","0 SPACEBEE-100","1 48883U 21059E   22317.60337642  .00014059  00000-0  67347-3 0  9993","2 48883  97.5733  86.8577 0007473 309.2285  50.8285 15.19026518 76546","2021-059E","48883","6886.918","94.798","513.930","503.637","0"
"GENERATED VIA SPACETRACK.ORG API","18 SPCS","48883","SPACEBEE-100","PAYLOAD","U","21059E","2022-11-14 07:52:17","473728","15.19045543","0.0007548","97.5731","87.5837","306.3277","53.726","0","999","7665","0.00061981","0.00012939","0","3654975","0 SPACEBEE-100","1 48883U 21059E   22318.32798002  .00012939  00000-0  61981-3 0  9997","2 48883  97.5731  87.5837 0007548 306.3277  53.7260 15.19045543 76659","2021-059E","48883","6886.861","94.796","513.924","503.528","0"
"GENERATED VIA SPACETRACK.ORG API","18 SPCS","48883","SPACEBEE-100","PAYLOAD","U","21059E","2022-11-14 20:31:08","403168","15.19059496","0.0007526","97.573","88.1119","304.2434","55.8087","0","999","7673","0.00059828","0.00012491","0","3655830","0 SPACEBEE-100","1 48883U 21059E   22318.85495837  .00012491  00000-0  59828-3 0  9995","2 48883  97.5730  88.1119 0007526 304.2434  55.8087 15.19059496 76737","2021-059E","48883","6886.819","94.795","513.867","503.501","0"
"GENERATED VIA SPACETRACK.ORG API","18 SPCS","48883","SPACEBEE-100","PAYLOAD","U","21059E","2022-11-14 20:31:08","403168","15.19059496","0.0007526","97.573","88.1119","304.2434","55.8087","0","999","7673","0.00059828","0.00012491","0","3656014","0 SPACEBEE-100","1 48883U 21059E   22318.85495837  .00012491  00000-0  59828-3 0  9995","2 48883  97.5730  88.1119 0007526 304.2434  55.8087 15.19059496 76737","2021-059E","48883","6886.819","94.795","513.867","503.501","0"
"GENERATED VIA SPACETRACK.ORG API","18 SPCS","48883","SPACEBEE-100","PAYLOAD","U","21059E","2022-11-15 07:35:07","622880","15.1907348","0.0007495","97.5729","88.5739","302.5232","57.5278","0","999","7680","0.00065105","0.00013606","0","3657603","0 SPACEBEE-100","1 48883U 21059E   22319.31606045  .00013606  00000-0  65105-3 0  9996","2 48883  97.5729  88.5739 0007495 302.5232  57.5278 15.19073480 76807","2021-059E","48883","6886.776","94.795","513.803","503.480","0"
"GENERATED VIA SPACETRACK.ORG API","18 SPCS","48883","SPACEBEE-100","PAYLOAD","U","21059E","2022-11-15 20:13:57","768672","15.19085751","0.0007445","97.5729","89.1019","300.4638","59.586","0","999","7688","0.00056641","0.0001183","0","3657961","0 SPACEBEE-100","1 48883U 21059E   22319.84302973  .00011830  00000-0  56641-3 0  9999","2 48883  97.5729  89.1019 0007445 300.4638  59.5860 15.19085751 76888","2021-059E","48883","6886.739","94.794","513.732","503.477","0"
"GENERATED VIA SPACETRACK.ORG API","18 SPCS","48883","SPACEBEE-100","PAYLOAD","U","21059E","2022-11-15 21:48:49","8384","15.19087361","0.000744","97.5729","89.1679","300.2332","59.8165","0","999","7689","0.00055942","0.00011683","0","3658265","0 SPACEBEE-100","1 48883U 21059E   22319.90890056  .00011683  00000-0  55942-3 0  9999","2 48883  97.5729  89.1679 0007440 300.2332  59.8165 15.19087361 76895","2021-059E","48883","6886.735","94.794","513.723","503.476","0"
"GENERATED VIA SPACETRACK.ORG API","18 SPCS","48883","SPACEBEE-100","PAYLOAD","U","21059E","2022-11-16 08:52:47","533440","15.19098659","0.0007353","97.573","89.6304","298.4271","61.6221","0","999","7696","0.00053633","0.00011201","0","3659788","0 SPACEBEE-100","1 48883U 21059E   22320.36999460  .00011201  00000-0  53633-3 0  9991","2 48883  97.5730  89.6304 0007353 298.4271  61.6221 15.19098659 76964","2021-059E","48883","6886.700","94.793","513.629","503.502","0"
"GENERATED VIA SPACETRACK.ORG API","18 SPCS","48883","SPACEBEE-100","PAYLOAD","U","21059E","2022-11-17 02:16:10","337376","15.19115589","0.0007314","97.573","90.3567","295.8203","64.2277","0","999","7707","0.00051842","0.00010829","0","3661317","0 SPACEBEE-100","1 48883U 21059E   22321.09456409  .00010829  00000-0  51842-3 0  9998","2 48883  97.5730  90.3567 0007314 295.8203  64.2277 15.19115589 77072","2021-059E","48883","6886.649","94.792","513.551","503.477","0"
"GENERATED VIA SPACETRACK.ORG API","18 SPCS","48883","SPACEBEE-100","PAYLOAD","U","21059E","2022-11-17 08:35:34","819296","15.19122023","0.0007301","97.5729","90.6207","294.7835","65.2639","0","999","7711","0.00051274","0.00010711","0","3661693","0 SPACEBEE-100","1 48883U 21059E   22321.35804189  .00010711  00000-0  51274-3 0  9998","2 48883  97.5729  90.6207 0007301 294.7835  65.2639 15.19122023 77118","2021-059E","48883","6886.630","94.792","513.523","503.467","0"
"GENERATED VIA SPACETRACK.ORG API","18 SPCS","48883","SPACEBEE-100","PAYLOAD","U","21059E","2022-11-18 08:18:20","865312","15.19143179","0.0007279","97.5728","91.6111","290.8231","69.2223","0","999","7726","0.00046765","0.00009768","0","3662423","0 SPACEBEE-100","1 48883U 21059E   22322.34607483  .00009768  00000-0  46765-3 0  9995","2 48883  97.5728  91.6111 0007279 290.8231  69.2223 15.19143179 77267","2021-059E","48883","6886.566","94.790","513.444","503.418","0"
"GENERATED VIA SPACETRACK.ORG API","18 SPCS","48883","SPACEBEE-100","PAYLOAD","U","21059E","2022-11-18 08:18:20","865312","15.19143179","0.0007279","97.5728","91.6111","290.8231","69.2223","0","999","7726","0.00046765","0.00009768","0","3662515","0 SPACEBEE-100","1 48883U 21059E   22322.34607483  .00009768  00000-0  46765-3 0  9995","2 48883  97.5728  91.6111 0007279 290.8231  69.2223 15.19143179 77267","2021-059E","48883","6886.566","94.790","513.444","503.418","0"
"GENERATED VIA SPACETRACK.ORG API","18 SPCS","48883","SPACEBEE-100","PAYLOAD","U","21059E","2022-11-19 08:01:05","738880","15.19166625","0.0007314","97.5727","92.6015","286.8329","73.2103","0","999","7741","0.00057285","0.00011993","0","3663316","0 SPACEBEE-100","1 48883U 21059E   22323.33409420  .00011993  00000-0  57285-3 0  9998","2 48883  97.5727  92.6015 0007314 286.8329  73.2103 15.19166625 77413","2021-059E","48883","6886.495","94.789","513.397","503.323","0"
"GENERATED VIA SPACETRACK.ORG API","18 SPCS","48883","SPACEBEE-100","PAYLOAD","U","21059E","2022-11-19 14:20:29","488992","15.19171181","0.000733","97.5727","92.8655","285.8793","74.1633","0","999","7745","0.00053909","0.00011282","0","3663294","0 SPACEBEE-100","1 48883U 21059E   22323.59756353  .00011282  00000-0  53909-3 0  9996","2 48883  97.5727  92.8655 0007330 285.8793  74.1633 15.19171181 77452","2021-059E","48883","6886.481","94.789","513.394","503.298","0"
"GENERATED VIA SPACETRACK.ORG API","18 SPCS","48883","SPACEBEE-100","PAYLOAD","U","21059E","2022-11-20 07:43:49","344960","15.19187562","0.0007354","97.5728","93.5919","282.8811","77.1601","0","999","7756","0.00051951","0.00010875","0","3664760","0 SPACEBEE-100","1 48883U 21059E   22324.32209890  .00010875  00000-0  51951-3 0  9999","2 48883  97.5728  93.5919 0007354 282.8811  77.1601 15.19187562 77568","2021-059E","48883","6886.432","94.788","513.361","503.232","0"
"GENERATED VIA SPACETRACK.ORG API","18 SPCS","48883","SPACEBEE-100","PAYLOAD","U","21059E","2022-11-20 20:22:36","83136","15.19199897","0.0007314","97.5729","94.1202","280.6184","79.4226","0","999","7764","0.00053208","0.00011144","0","3665715","0 SPACEBEE-100","1 48883U 21059E   22324.84902874  .00011144  00000-0  53208-3 0  9995","2 48883  97.5729  94.1202 0007314 280.6184  79.4226 15.19199897 77647","2021-059E","48883","6886.394","94.787","513.296","503.223","0"
"GENERATED VIA SPACETRACK.ORG API","18 SPCS","48883","SPACEBEE-100","PAYLOAD","U","21059E","2022-11-20 21:57:26","901216","15.19201462","0.000732","97.573","94.1862","280.4717","79.5692","0","999","7765","0.00053366","0.00011178","0","3665884","0 SPACEBEE-100","1 48883U 21059E   22324.91489469  .00011178  00000-0  53366-3 0  9995","2 48883  97.5730  94.1862 0007320 280.4717  79.5692 15.19201462 77659","2021-059E","48883","6886.390","94.787","513.296","503.214","0"
"GENERATED VIA SPACETRACK.ORG API","18 SPCS","48883","SPACEBEE-100","PAYLOAD","U","21059E","2022-11-21 07:26:31","682688","15.192127","0.0007294","97.5732","94.5825","278.861","81.1798","0","999","7771","0.00061633","0.00012927","0","3666297","0 SPACEBEE-100","1 48883U 21059E   22325.31008892  .00012927  00000-0  61633-3 0  9996","2 48883  97.5732  94.5825 0007294 278.8610  81.1798 15.19212700 77717","2021-059E","48883","6886.356","94.786","513.244","503.198","0"
"GENERATED VIA SPACETRACK.ORG API","18 SPCS","48883","SPACEBEE-100","PAYLOAD","U","21059E","2022-11-21 20:05:17","740896","15.19224151","0.0007263","97.5733","95.1108","276.8523","83.1885","0","999","7779","0.0005771","0.00012103","0","3666658","0 SPACEBEE-100","1 48883U 21059E   22325.83701089  .00012103  00000-0  57710-3 0  9998","2 48883  97.5733  95.1108 0007263 276.8523  83.1885 15.19224151 77796","2021-059E","48883","6886.321","94.785","513.188","503.185","0"
"GENERATED VIA SPACETRACK.ORG API","18 SPCS","48883","SPACEBEE-100","PAYLOAD","U","21059E","2022-11-22 08:44:03","420672","15.19234428","0.0007219","97.5737","95.6391","274.7386","85.3023","0","999","7787","0.00047419","0.00009932","0","3667143","0 SPACEBEE-100","1 48883U 21059E   22326.36392848  .00009932  00000-0  47419-3 0  9997","2 48883  97.5737  95.6391 0007219 274.7386  85.3023 15.19234428 77879","2021-059E","48883","6886.290","94.785","513.126","503.184","0"
